[
  {
    "OBJECT_NAME": "STARLINK-34257",
    "OBJECT_ID": "25176AD",
    "EPOCH": "2025-11-11T08:00:03.000384",
    "MEAN_MOTION": 15.30173182,
    "ECCENTRICITY": 0.0001302,
    "INCLINATION": 53.1606,
    "RA_OF_ASC_NODE": 342.303,
    "ARG_OF_PERICENTER": 84.5946,
    "MEAN_ANOMALY": 218.6264,
    "EPHEMERIS_TYPE": 0,
    "CLASSIFICATION_TYPE": "U",
    "NORAD_CAT_ID": 65225,
    "ELEMENT_SET_NO": 999,
    "REV_AT_EPOCH": 591,
    "BSTAR": 0.00040705000000000006,
    "MEAN_MOTION_DOT": 0.00011705,
    "MEAN_MOTION_DDOT": 0.0,
    "TLE_LINE1": "1 65225U 25176AD  25315.33336806  .00011705  00000+0  40705-3 0  9991",
    "TLE_LINE2": "2 65225  53.1606 342.3030 0001302  84.5946 218.6264 15.30173182  5915",
    "COMMENT": "Grouped by shell and plane from TLE"
  }
]